{"type": "FeatureCollection", "features": [ {"type": "Feature", "properties": {"norad_id": 29782, "name": "FENGYUN 1C DEB", "group": "fengyun-1c-debris", "lat": 65.57236616620595, "lon": 34.111256299307165, "alt_km": 851.6162277073254, "timestamp": "2025-12-26T23:26:42.400417+00:00", "meta": {"OBJECT_NAME": "FENGYUN 1C DEB", "OBJECT_ID": "1999-025BY", "EPOCH": "2025-12-26T15:23:22.411104", "MEAN_MOTION": 14.11725201, "ECCENTRICITY": 0.00557336, "INCLINATION": 99.0991, "RA_OF_ASC_NODE": 54.4319, "ARG_OF_PERICENTER": 165.0717, "MEAN_ANOMALY": 357.9468, "EPHEMERIS_TYPE": 0, "CLASSIFICATION_TYPE": "U", "NORAD_CAT_ID": 29782, "ELEMENT_SET_NO": 999, "REV_AT_EPOCH": 96867, "BSTAR": 0.0011952532, "MEAN_MOTION_DOT": 2.163e-05, "MEAN_MOTION_DDOT": 0}, "tle": {"line1": "1 29782U 99025BY  25360.64123161  .00002163  00000+0  11953-2 0  9995", "line2": "2 29782  99.0991  54.4319 0055733 165.0717 357.9468 14.11725201968675"}}, "geometry": {"type": "Point", "coordinates": [34.111256299307165, 65.57236616620595]}}, {"type": "Feature", "properties": {"norad_id": 29784, "name": "FENGYUN 1C DEB", "group": "fengyun-1c-debris", "lat": 69.99744238041339, "lon": 125.82295317978249, "alt_km": 818.4798830894324, "timestamp": "2025-12-26T23:26:42.400426+00:00", "meta": {"OBJECT_NAME": "FENGYUN 1C DEB", "OBJECT_ID": "1999-025CA", "EPOCH": "2025-12-25T18:42:46.840320", "MEAN_MOTION": 14.30617414, "ECCENTRICITY": 0.00591213, "INCLINATION": 98.9467, "RA_OF_ASC_NODE": 278.9492, "ARG_OF_PERICENTER": 258.8267, "MEAN_ANOMALY": 167.249, "EPHEMERIS_TYPE": 0, "CLASSIFICATION_TYPE": "U", "NORAD_CAT_ID": 29784, "ELEMENT_SET_NO": 999, "REV_AT_EPOCH": 98546, "BSTAR": 0.00049327181, "MEAN_MOTION_DOT": 1.265e-05, "MEAN_MOTION_DDOT": 0}, "tle": {"line1": "1 29784U 99025CA  25359.77970880  .00001265  00000+0  49327-3 0  9996", "line2": "2 29784  98.9467 278.9492 0059121 258.8267 167.2490 14.30617414985464"}}, "geometry": {"type": "Point", "coordinates": [125.82295317978249, 69.99744238041339]}}, {"type": "Feature", "properties": {"norad_id": 29786, "name": "FENGYUN 1C DEB", "group": "fengyun-1c-debris", "lat": 26.450959387723945, "lon": 13.373434960394619, "alt_km": 892.7471192214925, "timestamp": "2025-12-26T23:26:42.400436+00:00", "meta": {"OBJECT_NAME": "FENGYUN 1C DEB", "OBJECT_ID": "1999-025CC", "EPOCH": "2025-12-26T13:41:44.361312", "MEAN_MOTION": 14.09093377, "ECCENTRICITY": 0.0076866, "INCLINATION": 98.7349, "RA_OF_ASC_NODE": 17.3664, "ARG_OF_PERICENTER": 263.4464, "MEAN_ANOMALY": 223.1763, "EPHEMERIS_TYPE": 0, "CLASSIFICATION_TYPE": "U", "NORAD_CAT_ID": 29786, "ELEMENT_SET_NO": 999, "REV_AT_EPOCH": 97355, "BSTAR": 0.00021744309, "MEAN_MOTION_DOT": 3.44e-06, "MEAN_MOTION_DDOT": 0}, "tle": {"line1": "1 29786U 99025CC  25360.57065233  .00000344  00000+0  21744-3 0  9995", "line2": "2 29786  98.7349  17.3664 0076866 263.4464 223.1763 14.09093377973559"}}, "geometry": {"type": "Point", "coordinates": [13.373434960394619, 26.450959387723945]}}, {"type": "Feature", "properties": {"norad_id": 29788, "name": "FENGYUN 1C DEB", "group": "fengyun-1c-debris", "lat": 70.87046745490377, "lon": -80.89627341124292, "alt_km": 775.0801724986113, "timestamp": "2025-12-26T23:26:42.400445+00:00", "meta": {"OBJECT_NAME": "FENGYUN 1C DEB", "OBJECT_ID": "1999-025CE", "EPOCH": "2025-12-26T11:14:31.685856", "MEAN_MOTION": 14.26071239, "ECCENTRICITY": 0.00430694, "INCLINATION": 98.7828, "RA_OF_ASC_NODE": 72.1251, "ARG_OF_PERICENTER": 150.8709, "MEAN_ANOMALY": 227.6141, "EPHEMERIS_TYPE": 0, "CLASSIFICATION_TYPE": "U", "NORAD_CAT_ID": 29788, "ELEMENT_SET_NO": 999, "REV_AT_EPOCH": 97551, "BSTAR": 0.0014973992, "MEAN_MOTION_DOT": 3.57e-05, "MEAN_MOTION_DDOT": 0}, "tle": {"line1": "1 29788U 99025CE  25360.46842229  .00003570  00000+0  14974-2 0  9993", "line2": "2 29788  98.7828  72.1251 0043069 150.8709 227.6141 14.26071239975513"}}, "geometry": {"type": "Point", "coordinates": [-80.89627341124292, 70.87046745490377]}}, {"type": "Feature", "properties": {"norad_id": 29789, "name": "FENGYUN 1C DEB", "group": "fengyun-1c-debris", "lat": 2.8610412191893357, "lon": 3.6476683338612643, "alt_km": 962.9802243691038, "timestamp": "2025-12-26T23:26:42.400455+00:00", "meta": {"OBJECT_NAME": "FENGYUN 1C DEB", "OBJECT_ID": "1999-025CF", "EPOCH": "2025-12-26T07:29:10.512672", "MEAN_MOTION": 13.54272993, "ECCENTRICITY": 0.02982725, "INCLINATION": 99.4515, "RA_OF_ASC_NODE": 182.5342, "ARG_OF_PERICENTER": 244.5623, "MEAN_ANOMALY": 295.2937, "EPHEMERIS_TYPE": 0, "CLASSIFICATION_TYPE": "U", "NORAD_CAT_ID": 29789, "ELEMENT_SET_NO": 999, "REV_AT_EPOCH": 93171, "BSTAR": 0.00147604, "MEAN_MOTION_DOT": 1.29e-05, "MEAN_MOTION_DDOT": 0}, "tle": {"line1": "1 29789U 99025CF  25360.31192723  .00001290  00000+0  14760-2 0  9995", "line2": "2 29789  99.4515 182.5342 0298272 244.5623 295.2937 13.54272993931714"}}, "geometry": {"type": "Point", "coordinates": [3.6476683338612643, 2.8610412191893357]}}, {"type": "Feature", "properties": {"norad_id": 29790, "name": "FENGYUN 1C DEB", "group": "fengyun-1c-debris", "lat": -17.528139688736626, "lon": -1.3089589743274586, "alt_km": 838.0846618766673, "timestamp": "2025-12-26T23:26:42.400464+00:00", "meta": {"OBJECT_NAME": "FENGYUN 1C DEB", "OBJECT_ID": "1999-025CG", "EPOCH": "2025-12-26T13:28:09.563520", "MEAN_MOTION": 14.32289886, "ECCENTRICITY": 0.00770753, "INCLINATION": 99.148, "RA_OF_ASC_NODE": 355.3356, "ARG_OF_PERICENTER": 136.5593, "MEAN_ANOMALY": 224.1697, "EPHEMERIS_TYPE": 0, "CLASSIFICATION_TYPE": "U", "NORAD_CAT_ID": 29790, "ELEMENT_SET_NO": 999, "REV_AT_EPOCH": 98723, "BSTAR": 0.00028404817, "MEAN_MOTION_DOT": 7.44e-06, "MEAN_MOTION_DDOT": 0}, "tle": {"line1": "1 29790U 99025CG  25360.56122180  .00000744  00000+0  28405-3 0  9999", "line2": "2 29790  99.1480 355.3356 0077075 136.5593 224.1697 14.32289886987239"}}, "geometry": {"type": "Point", "coordinates": [-1.3089589743274586, -17.528139688736626]}}, {"type": "Feature", "properties": {"norad_id": 29791, "name": "FENGYUN 1C DEB", "group": "fengyun-1c-debris", "lat": 12.82862225842471, "lon": -175.17487912323054, "alt_km": 723.7452016937114, "timestamp": "2025-12-26T23:26:42.400474+00:00", "meta": {"OBJECT_NAME": "FENGYUN 1C DEB", "OBJECT_ID": "1999-025CH", "EPOCH": "2025-12-26T15:00:20.787840", "MEAN_MOTION": 14.58441397, "ECCENTRICITY": 0.00410174, "INCLINATION": 99.0372, "RA_OF_ASC_NODE": 2.3661, "ARG_OF_PERICENTER": 20.6004, "MEAN_ANOMALY": 100.861, "EPHEMERIS_TYPE": 0, "CLASSIFICATION_TYPE": "U", "NORAD_CAT_ID": 29791, "ELEMENT_SET_NO": 999, "REV_AT_EPOCH": 99048, "BSTAR": 0.0017555808, "MEAN_MOTION_DOT": 8.191e-05, "MEAN_MOTION_DDOT": 0}, "tle": {"line1": "1 29791U 99025CH  25360.62524060  .00008191  00000+0  17556-2 0  9998", "line2": "2 29791  99.0372   2.3661 0041017  20.6004 100.8610 14.58441397990485"}}, "geometry": {"type": "Point", "coordinates": [-175.17487912323054, 12.82862225842471]}}, {"type": "Feature", "properties": {"norad_id": 29792, "name": "FENGYUN 1C DEB", "group": "fengyun-1c-debris", "lat": 41.452782491844545, "lon": -120.89486909139258, "alt_km": 865.4883984531934, "timestamp": "2025-12-26T23:26:42.400483+00:00", "meta": {"OBJECT_NAME": "FENGYUN 1C DEB", "OBJECT_ID": "1999-025CJ", "EPOCH": "2025-12-26T02:26:08.520864", "MEAN_MOTION": 14.15219274, "ECCENTRICITY": 0.0047444, "INCLINATION": 98.7564, "RA_OF_ASC_NODE": 50.4217, "ARG_OF_PERICENTER": 357.3203, "MEAN_ANOMALY": 2.771, "EPHEMERIS_TYPE": 0, "CLASSIFICATION_TYPE": "U", "NORAD_CAT_ID": 29792, "ELEMENT_SET_NO": 999, "REV_AT_EPOCH": 97128, "BSTAR": 0.0012362945, "MEAN_MOTION_DOT": 2.386e-05, "MEAN_MOTION_DDOT": 0}, "tle": {"line1": "1 29792U 99025CJ  25360.10148751  .00002386  00000+0  12363-2 0  9992", "line2": "2 29792  98.7564  50.4217 0047444 357.3203   2.7710 14.15219274971285"}}, "geometry": {"type": "Point", "coordinates": [-120.89486909139258, 41.452782491844545]}}, {"type": "Feature", "properties": {"norad_id": 29793, "name": "FENGYUN 1C DEB", "group": "fengyun-1c-debris", "lat": 63.41711212158232, "lon": 15.632140151240593, "alt_km": 987.9449676636505, "timestamp": "2025-12-26T23:26:42.400492+00:00", "meta": {"OBJECT_NAME": "FENGYUN 1C DEB", "OBJECT_ID": "1999-025CK", "EPOCH": "2025-12-26T11:01:51.103200", "MEAN_MOTION": 14.01119873, "ECCENTRICITY": 0.01435357, "INCLINATION": 98.3537, "RA_OF_ASC_NODE": 178.0827, "ARG_OF_PERICENTER": 299.1966, "MEAN_ANOMALY": 88.3932, "EPHEMERIS_TYPE": 0, "CLASSIFICATION_TYPE": "U", "NORAD_CAT_ID": 29793, "ELEMENT_SET_NO": 999, "REV_AT_EPOCH": 96341, "BSTAR": 0.0010324263, "MEAN_MOTION_DOT": 1.655e-05, "MEAN_MOTION_DDOT": 0}, "tle": {"line1": "1 29793U 99025CK  25360.45961925  .00001655  00000+0  10324-2 0  9990", "line2": "2 29793  98.3537 178.0827 0143535 299.1966  88.3932 14.01119873963414"}}, "geometry": {"type": "Point", "coordinates": [15.632140151240593, 63.41711212158232]}}, {"type": "Feature", "properties": {"norad_id": 29794, "name": "FENGYUN 1C DEB", "group": "fengyun-1c-debris", "lat": 67.59068925770674, "lon": -1.1865104966024094, "alt_km": 895.7091358417474, "timestamp": "2025-12-26T23:26:42.400502+00:00", "meta": {"OBJECT_NAME": "FENGYUN 1C DEB", "OBJECT_ID": "1999-025CL", "EPOCH": "2025-12-25T16:19:10.134624", "MEAN_MOTION": 14.09022028, "ECCENTRICITY": 0.01565628, "INCLINATION": 98.2002, "RA_OF_ASC_NODE": 157.1643, "ARG_OF_PERICENTER": 3.3329, "MEAN_ANOMALY": 11.0893, "EPHEMERIS_TYPE": 0, "CLASSIFICATION_TYPE": "U", "NORAD_CAT_ID": 29794, "ELEMENT_SET_NO": 999, "REV_AT_EPOCH": 97030, "BSTAR": 0.00051358158, "MEAN_MOTION_DOT": 9.58e-06, "MEAN_MOTION_DDOT": 0}, "tle": {"line1": "1 29794U 99025CL  25359.67997841  .00000958  00000+0  51358-3 0  9997", "line2": "2 29794  98.2002 157.1643 0156562   3.3329  11.0893 14.09022028970305"}}, "geometry": {"type": "Point", "coordinates": [-1.1865104966024094, 67.59068925770674]}}]}